LANDSAT 8               
1 39084U 13008A   21006.45464504  .00000064  00000-0  24340-4 0  9994
2 39084  98.2047  79.4013 0001150  88.7926 271.3405 14.57119355408439
